HORYU-2
1 38340U 12025D   14302.81764176  .00003501  00000-0  55196-3 0    87
2 38340 098.2818 262.4488 0013792 106.8357 253.4364 14.73036607131607
RS-40
1 38735U 12041C   14302.75026727  .00000004  00000-0 -39977-4 0  7251
2 38735 082.4785 203.6403 0016663 325.4940 034.5056 12.42562509102281
PROITERES
1 38756U 12047B   14303.65672770  .00000917  00000-0  14346-3 0  3592
2 38756 098.2266 034.1647 0011358 314.1853 045.8421 14.75217277115141
BEESAT-3
1 39134U 13015E   14302.72413250  .00013341  00000-0  88206-3 0  7542
2 39134 064.8750 072.2569 0036064 285.6164 074.0978 15.07099964 83910
BEESAT-2
1 39136U 13015G   14302.98360187  .00012981  00000-0  87849-3 0  7385
2 39136 064.8752 072.3781 0036265 285.5707 074.1411 15.06246395 83932
LO-75
1 39382U 13064C   14295.69194059  .07301741  00000-0  36367-2 0  4875
2 39382 040.4713 030.2705 0002289 341.7175 018.4586 16.19795749470823
ZACUBE-1
1 39417U 13066B   14302.73315903  .00002963  00000-0  39900-3 0  4529
2 39417 097.7618 008.6663 0062286 165.3315 194.9722 14.78583426 50570
TRITON-1
1 39427U 13066M   14302.75754767  .00002708  00000-0  45653-3 0  3042
2 39427 097.7495 001.7615 0117710 181.4780 178.6094 14.65766960 50105
DELFIN3XT
1 39428U 13066N   14302.72791048  .00004177  00000-0  71758-3 0  3073
2 39428 097.7488 000.5616 0127598 184.7994 175.1997 14.63911984 50014
GOMX-1
1 39430U 13066Q   14303.59977771  .00002127  00000-0  40806-3 0  9407
2 39430 097.7434 357.9898 0155741 191.8789 167.8722 14.57197172 49932
MO-76
1 39436U 13066W   14303.14427767  .00032932  00000-0  30674-2 0  3894
2 39436 097.7679 014.8757 0024961 160.8847 199.3315 14.93948049 50995
LO-74
1 39440U 13066AA  14302.74856828  .00002681  00000-0  39764-3 0  2996
2 39440 097.7575 005.9364 0084084 170.8961 189.3796 14.73491904 50397
PUCPSAT-1
1 39442U 13066AC  14303.14349223  .00006513  00000-0  72837-3 0  2995
2 39442 097.7677 013.3562 0034927 159.7446 200.5165 14.86808568 49677
SHINAISAT
1 39572U 14009A   14303.56337685  .00275524  36345-4  70120-3 0  3698
2 39572 064.9988 287.3158 0016386 284.7534 075.1815 15.94946933 38453
TEIKYOSAT
1 39576U 14009E   14297.85867254  .09345816  76764-5  25176-3 0  4374
2 39576 064.9818 300.5833 0008491 317.3597 044.3862 16.45008906 37698
CO-77
1 39577U 14009F   14244.78324653  .10543803  76292-5  32273-3 0  3795
2 39577 064.9920 123.7668 0014904 269.7208 091.1897 16.43552757 29380
SPROUT
1 39770U 14029E   14303.10268024  .00002825  00000-0  35433-3 0  1772
2 39770 097.8751 038.2155 0009200 227.5175 132.5261 14.82945897 23528
POPSAT-HIP1
1 40028U 14033U   14303.76720004  .00004738  00000-0  55309-3 0  4084
2 40028 097.9697 198.6515 0013295 208.1954 151.8558 14.85587982 19704
EO-80
1 40032U 14033Y   14303.65310091  .00004408  00000-0  51822-3 0  3964
2 40032 097.9682 198.4255 0011363 205.3736 154.6935 14.85344695 19693
VELOX-1
1 40057U 14034E   14303.74234046  .00004378  00000-0  66652-3 0  3959
2 40057 098.2399 013.0258 0010404 250.0223 109.9869 14.74439354 18050
DAURIA DX 1
1 40071U 14037C   14303.74847775  .00002087  00000-0  28521-3 0  3674
2 40071 098.3875 000.4508 0007294 255.8871 104.1518 14.79727283 16859
UKUBE-1
1 40074U 14037F   14303.74393282  .00004273  00000-0  56129-3 0  3692
2 40074 098.3883 000.6316 0003519 266.6115 093.4690 14.80816111 16860
CHASQUI-1
1 40117U 98067ET  14303.84847218  .00135129  00000-0  15376-2 0  2376
2 40117 051.6449 144.8551 0008051 218.8645 244.3456 15.61300134 11374
